[
    {
        "Altitude(m)": 612513.8974415585,
        "Argument of Periapsis(deg)": 0.0,
        "Eccentricity": 0.0,
        "Inclination(deg)": 60.0,
        "Latitude(deg)": -28.135852705207114,
        "Longitude(deg)": 117.91309670884031,
        "Mean Anomaly(deg)": 212.72729999999999,
        "RAAN(deg)": 20.0,
        "Satellite Name": "Test1 101",
        "Satellite Number": 101,
        "Semi-Major Axis(m)": 6980739.136638005,
        "Time(s)": 0
    },
    {
        "Altitude(m)": 612708.2650807435,
        "Argument of Periapsis(deg)": 0.00010418945913296404,
        "Eccentricity": 0.0,
        "Inclination(deg)": 60.0,
        "Latitude(deg)": -28.647592090482142,
        "Longitude(deg)": 118.27032632041256,
        "Mean Anomaly(deg)": 213.34740614546183,
        "RAAN(deg)": 19.99957995086026,
        "Satellite Name": "Test1 101",
        "Satellite Number": 101,
        "Semi-Major Axis(m)": 6980739.136638005,
        "Time(s)": 10
    }
]